GLOBALSTAR M045         
1 25676U 99019A   25025.32679640 -.00000086  00000+0  70574-4 0  9996
2 25676  51.9997 352.4510 0000382 351.1258 156.6348 12.27055293176098
GLOBALSTAR M019         
1 25677U 99019B   25025.40523896 -.00000061  00000+0  30557-3 0  9996
2 25677  51.9870 112.5446 0001234  72.1312   7.1865 12.13868773167803
GLOBALSTAR M044         
1 25678U 99019C   25025.43770705 -.00000097  00000+0 -17917-3 0  9998
2 25678  51.9983  45.9564 0006758 127.0177  19.9076 11.90248496154308
GLOBALSTAR M042         
1 25679U 99019D   25025.51414410 -.00000063  00000+0  27213-3 0  9998
2 25679  52.0016  93.7226 0002484  16.4776  89.4147 12.22077073167810
GLOBALSTAR M025         
1 25770U 99031A   25025.57540872 -.00000075  00000+0 -22709-3 0  9991
2 25770  51.9809 129.6412 0000956 225.2956 233.4235 11.22558629465694
GLOBALSTAR M049         
1 25771U 99031B   25025.52670210  .00000006  00000+0  24705-2 0  9996
2 25771  51.9855 157.3472 0004496 127.4319 232.6887 11.12112000101553
GLOBALSTAR M047         
1 25772U 99031C   25025.53241864 -.00000109  00000+0 -10823-2 0  9999
2 25772  51.9811 167.9341 0016366  22.2498 337.9015 11.31925804454959
GLOBALSTAR M052         
1 25773U 99031D   25025.08787000 -.00000066  00000+0 -18985-4 0  9998
2 25773  51.9857 269.0355 0001922 318.9788 191.0189 11.15057037462549
